[
    {
        "Altitude(m)": 716936.5024067888,
        "Argument of Periapsis(deg)": 0.007973084830638947,
        "Eccentricity": 0.0,
        "Inclination(deg)": 45.0,
        "Latitude(deg)": -42.858343206708845,
        "Longitude(deg)": 51.82559390812492,
        "Mean Anomaly(deg)": -106.4722483467635,
        "RAAN(deg)": 264.99247364097926,
        "Satellite Name": "Constellation 1 1181",
        "Satellite Number": 1181,
        "Semi-Major Axis(m)": 7083131.272910544,
        "Time(s)": 133
    },
    {
        "Altitude(m)": 716943.3205280303,
        "Argument of Periapsis(deg)": 0.008033032836884352,
        "Eccentricity": 0.0,
        "Inclination(deg)": 45.0,
        "Latitude(deg)": -42.87483272880409,
        "Longitude(deg)": 51.90079878438512,
        "Mean Anomaly(deg)": -106.41154720651356,
        "RAAN(deg)": 264.9924170518137,
        "Satellite Name": "Constellation 1 1181",
        "Satellite Number": 1181,
        "Semi-Major Axis(m)": 7083131.272910544,
        "Time(s)": 134
    },
    {
        "Altitude(m)": 716950.1157075837,
        "Argument of Periapsis(deg)": 0.008092980843129758,
        "Eccentricity": 0.0,
        "Inclination(deg)": 45.0,
        "Latitude(deg)": -42.89126723672042,
        "Longitude(deg)": 51.976045734037456,
        "Mean Anomaly(deg)": -106.35084606626359,
        "RAAN(deg)": 264.99236046264815,
        "Satellite Name": "Constellation 1 1181",
        "Satellite Number": 1181,
        "Semi-Major Axis(m)": 7083131.272910544,
        "Time(s)": 135
    },
    {
        "Altitude(m)": 716956.887920455,
        "Argument of Periapsis(deg)": 0.008152928849375162,
        "Eccentricity": 0.0,
        "Inclination(deg)": 45.0,
        "Latitude(deg)": -42.90764667042538,
        "Longitude(deg)": 52.05133466290033,
        "Mean Anomaly(deg)": -106.2901449260138,
        "RAAN(deg)": 264.99230387348257,
        "Satellite Name": "Constellation 1 1181",
        "Satellite Number": 1181,
        "Semi-Major Axis(m)": 7083131.272910544,
        "Time(s)": 136
    },
    {
        "Altitude(m)": 716963.6371417284,
        "Argument of Periapsis(deg)": 0.008212876855620568,
        "Eccentricity": 0.0,
        "Inclination(deg)": 45.0,
        "Latitude(deg)": -42.92397097000655,
        "Longitude(deg)": 52.126665476234535,
        "Mean Anomaly(deg)": -106.22944378576385,
        "RAAN(deg)": 264.992247284317,
        "Satellite Name": "Constellation 1 1181",
        "Satellite Number": 1181,
        "Semi-Major Axis(m)": 7083131.272910544,
        "Time(s)": 137
    },
    {
        "Altitude(m)": 716970.3633465758,
        "Argument of Periapsis(deg)": 0.008272824861865974,
        "Eccentricity": 0.0,
        "Inclination(deg)": 45.0,
        "Latitude(deg)": -42.94024007567238,
        "Longitude(deg)": 52.202038078742426,
        "Mean Anomaly(deg)": -106.16874264551387,
        "RAAN(deg)": 264.9921906951514,
        "Satellite Name": "Constellation 1 1181",
        "Satellite Number": 1181,
        "Semi-Major Axis(m)": 7083131.272910544,
        "Time(s)": 138
    },
    {
        "Altitude(m)": 716977.0665102551,
        "Argument of Periapsis(deg)": 0.00833277286811138,
        "Eccentricity": 0.0,
        "Inclination(deg)": 45.0,
        "Latitude(deg)": -42.95645392775302,
        "Longitude(deg)": 52.27745237456826,
        "Mean Anomaly(deg)": -106.10804150526414,
        "RAAN(deg)": 264.9921341059858,
        "Satellite Name": "Constellation 1 1181",
        "Satellite Number": 1181,
        "Semi-Major Axis(m)": 7083131.272910544,
        "Time(s)": 139
    },
    {
        "Altitude(m)": 716983.7466081004,
        "Argument of Periapsis(deg)": 0.008392720874356788,
        "Eccentricity": 0.0,
        "Inclination(deg)": 45.0,
        "Latitude(deg)": -42.972612466701506,
        "Longitude(deg)": 52.35290826729914,
        "Mean Anomaly(deg)": -106.04734036501418,
        "RAAN(deg)": 264.9920775168203,
        "Satellite Name": "Constellation 1 1181",
        "Satellite Number": 1181,
        "Semi-Major Axis(m)": 7083131.272910544,
        "Time(s)": 140
    },
    {
        "Altitude(m)": 716990.4036155381,
        "Argument of Periapsis(deg)": 0.008452668880602192,
        "Eccentricity": 0.0,
        "Inclination(deg)": 45.0,
        "Latitude(deg)": -42.98871563309451,
        "Longitude(deg)": 52.428405491867004,
        "Mean Anomaly(deg)": -105.98663922476425,
        "RAAN(deg)": 264.9920209276547,
        "Satellite Name": "Constellation 1 1181",
        "Satellite Number": 1181,
        "Semi-Major Axis(m)": 7083131.272910544,
        "Time(s)": 141
    },
    {
        "Altitude(m)": 716997.0375080747,
        "Argument of Periapsis(deg)": 0.008512616886847598,
        "Eccentricity": 0.0,
        "Inclination(deg)": 45.0,
        "Latitude(deg)": -43.004763367632584,
        "Longitude(deg)": 52.50394428693651,
        "Mean Anomaly(deg)": -105.92593808451434,
        "RAAN(deg)": 264.9919643384891,
        "Satellite Name": "Constellation 1 1181",
        "Satellite Number": 1181,
        "Semi-Major Axis(m)": 7083131.272910544,
        "Time(s)": 142
    },
    {
        "Altitude(m)": 717003.648261299,
        "Argument of Periapsis(deg)": 0.008572564893093004,
        "Eccentricity": 0.0,
        "Inclination(deg)": 45.0,
        "Latitude(deg)": -43.02075561114231,
        "Longitude(deg)": 52.57952438632462,
        "Mean Anomaly(deg)": -105.86523694426448,
        "RAAN(deg)": 264.99190774932356,
        "Satellite Name": "Constellation 1 1181",
        "Satellite Number": 1181,
        "Semi-Major Axis(m)": 7083131.272910544,
        "Time(s)": 143
    },
    {
        "Altitude(m)": 717010.2358508864,
        "Argument of Periapsis(deg)": 0.008632512899338408,
        "Eccentricity": 0.0,
        "Inclination(deg)": 45.0,
        "Latitude(deg)": -43.03669230457638,
        "Longitude(deg)": 52.65514569138767,
        "Mean Anomaly(deg)": -105.80453580401453,
        "RAAN(deg)": 264.991851160158,
        "Satellite Name": "Constellation 1 1181",
        "Satellite Number": 1181,
        "Semi-Major Axis(m)": 7083131.272910544,
        "Time(s)": 144
    },
    {
        "Altitude(m)": 717016.8002525961,
        "Argument of Periapsis(deg)": 0.008692460905583814,
        "Eccentricity": 0.0,
        "Inclination(deg)": 45.0,
        "Latitude(deg)": -43.0525733890146,
        "Longitude(deg)": 52.73080810292457,
        "Mean Anomaly(deg)": -105.7438346637646,
        "RAAN(deg)": 264.99179457099245,
        "Satellite Name": "Constellation 1 1181",
        "Satellite Number": 1181,
        "Semi-Major Axis(m)": 7083131.272910544,
        "Time(s)": 145
    },
    {
        "Altitude(m)": 717023.3414422746,
        "Argument of Periapsis(deg)": 0.00875240891182922,
        "Eccentricity": 0.0,
        "Inclination(deg)": 45.0,
        "Latitude(deg)": -43.068398805664835,
        "Longitude(deg)": 52.80651152117681,
        "Mean Anomaly(deg)": -105.68313352351483,
        "RAAN(deg)": 264.9917379818269,
        "Satellite Name": "Constellation 1 1181",
        "Satellite Number": 1181,
        "Semi-Major Axis(m)": 7083131.272910544,
        "Time(s)": 146
    },
    {
        "Altitude(m)": 717029.8593958424,
        "Argument of Periapsis(deg)": 0.008812356918074627,
        "Eccentricity": 0.0,
        "Inclination(deg)": 45.0,
        "Latitude(deg)": -43.084168495864084,
        "Longitude(deg)": 52.88225584582978,
        "Mean Anomaly(deg)": -105.62243238326482,
        "RAAN(deg)": 264.99168139266123,
        "Satellite Name": "Constellation 1 1181",
        "Satellite Number": 1181,
        "Semi-Major Axis(m)": 7083131.272910544,
        "Time(s)": 147
    },
    {
        "Altitude(m)": 717036.3540893189,
        "Argument of Periapsis(deg)": 0.008872304924320031,
        "Eccentricity": 0.0,
        "Inclination(deg)": 45.0,
        "Latitude(deg)": -43.09988240107924,
        "Longitude(deg)": 52.95804080791451,
        "Mean Anomaly(deg)": -105.56173124301489,
        "RAAN(deg)": 264.9916248034957,
        "Satellite Name": "Constellation 1 1181",
        "Satellite Number": 1181,
        "Semi-Major Axis(m)": 7083131.272910544,
        "Time(s)": 148
    },
    {
        "Altitude(m)": 717042.8254987986,
        "Argument of Periapsis(deg)": 0.008932252930565437,
        "Eccentricity": 0.0,
        "Inclination(deg)": 45.0,
        "Latitude(deg)": -43.11554046290742,
        "Longitude(deg)": 53.033866642196145,
        "Mean Anomaly(deg)": -105.50103010276503,
        "RAAN(deg)": 264.99156821433013,
        "Satellite Name": "Constellation 1 1181",
        "Satellite Number": 1181,
        "Semi-Major Axis(m)": 7083131.272910544,
        "Time(s)": 149
    },
    {
        "Altitude(m)": 717049.2736004614,
        "Argument of Periapsis(deg)": 0.008992200936810843,
        "Eccentricity": 0.0,
        "Inclination(deg)": 45.0,
        "Latitude(deg)": -43.131142623078,
        "Longitude(deg)": 53.10973307859325,
        "Mean Anomaly(deg)": -105.44032896251518,
        "RAAN(deg)": 264.9915116251646,
        "Satellite Name": "Constellation 1 1181",
        "Satellite Number": 1181,
        "Semi-Major Axis(m)": 7083131.272910544,
        "Time(s)": 150
    },
    {
        "Altitude(m)": 717055.6983705757,
        "Argument of Periapsis(deg)": 0.009052148943056249,
        "Eccentricity": 0.0,
        "Inclination(deg)": 45.0,
        "Latitude(deg)": -43.14668882345287,
        "Longitude(deg)": 53.18564001456521,
        "Mean Anomaly(deg)": -105.37962782226522,
        "RAAN(deg)": 264.991455035999,
        "Satellite Name": "Constellation 1 1181",
        "Satellite Number": 1181,
        "Semi-Major Axis(m)": 7083131.272910544,
        "Time(s)": 151
    }
]